FENGYUN 1C DEB          
1 30429U 99025AEQ 17345.12645325  .00002613  00000-0  34204-3 0  9999
2 30429  99.1613  43.2931 0064073 260.2125  99.1844 14.80084487578110
